1 13943U 76126BM  18212.26775009  .00000487  00000-0  28398-3 0  9994
2 13943  65.5839 138.5123 0087249 231.3514 286.4598 14.15732390734168
1 13946U 76067BE  18212.25771376 +.00000636 +00000-0 +21557-2 0  9998
2 13946 066.0628 149.7912 0643937 095.9770 048.0344 12.49376605612897
1 13947U 76067BF  18212.62398490 -.00000031 +00000-0 +99906-4 0  9997
2 13947 065.7173 078.0754 0668876 013.6588 017.5447 12.24146879192046
1 13948U 77121BD  18211.75231731 +.00000171 +00000-0 +24079-3 0  9999
2 13948 065.7632 094.0814 0075838 299.8610 167.7125 13.79437352905724
1 13958U 65108X   18212.65489087 -.00000112 +00000-0 +76528-4 0  9994
2 13958 027.0393 300.8177 6817224 164.2196 359.2012 02.69818890140656
1 14047U 65027J   18212.18814280 -.00000110 +00000-0 -41351-3 0  9993
2 14047 090.3067 292.0337 0035198 109.7223 278.5411 12.95659580461233
1 14048U 65027K   18212.74450973 +.00000605 +00000-0 +20428-2 0  9999
2 14048 090.3036 305.2319 0011894 315.5863 199.5754 12.98093715680286
1 14049U 65027L   18212.55365925 -.00000603 +00000-0 -22048-2 0  9991
2 14049 090.3077 297.9707 0035065 160.0891 265.8043 12.93983604686082
1 14122U 70089CW  18212.90879389 +.00001491 +00000-0 +28079-3 0  9995
2 14122 062.8922 165.8776 0446575 019.1414 014.7316 14.20024419827266
1 14209U 83075C   18213.43459769  .00000211  00000-0  13536-4 0  9997
2 14209  97.3191 272.2279 0027627 156.4652 203.7853 15.18004105916067
1 14222U 83063C   18212.81944162 +.00000195 +00000-0 +34787-4 0  9998
2 14222 082.3750 152.4300 0020714 056.2873 304.0300 14.62090030856024
1 14223U 83063D   18212.83543525 +.00000163 +00000-0 +48594-4 0  9995
2 14223 081.6560 169.4999 0056597 114.0596 274.6071 14.37231035831722
1 14228U 81053HN  18212.89041934 +.00000403 +00000-0 +37729-3 0  9994
2 14228 082.9674 058.0292 0100767 117.5700 307.1845 13.77064427772378
1 14229U 83075D   18212.67863205  .00000010  00000-0  57334-5 0  9990
2 14229  97.4968 191.2556 0027269 315.5769  99.9847 14.97798002900062
1 14344U 82037C   18213.35509549  .00000177  00000-0  57853-4 0  9998
2 14344  74.0583 175.1924 0019163 287.5606 225.2900 14.45289016832966
1 14345U 79089C   18212.47135597  .00000239  00000-0  51576-4 0  9997
2 14345  74.0234 125.7301 0009850 175.1794 301.2690 14.63965290856380
1 14346U 81041D   18212.75044691  .00000260  00000-0  46117-4 0  9993
2 14346  74.0401  80.3611 0009266 223.1537 248.9281 14.72536464869437
1 14357U 81053HQ  18212.75288816 +.00000298 +00000-0 +16667-3 0  9994
2 14357 082.8559 123.9003 0030501 257.5070 131.1750 14.07577221798112
1 14358U 81053HR  18213.02797927  .00000810  00000-0  50899-3 0  9999
2 14358  82.8149  58.8624 0190001 114.0334  37.8895 13.94776724780820
1 14364U 81053HX  18212.11630861  .00000463  00000-0  25688-3 0  9990
2 14364  82.7833  80.7283 0035009 115.2419  38.5339 14.08920688821298
1 14398U 82051C   18213.18869948  .00000182  00000-0  52359-4 0  9998
2 14398  74.0471 120.6931 0004113 254.3705 267.1214 14.51575978935593
1 14405U 81053JA  18212.88979817 +.00000236 +00000-0 +21165-3 0  9991
2 14405 083.2686 000.1419 0071540 184.0002 331.5962 13.78907564848320
1 14406U 81053JB  18213.31273194  .00000412  00000-0  23188-3 0  9999
2 14406  82.8422 164.9342 0036125  63.0708  90.0714 14.07868061816145
1 14407U 81053JC  18212.29826532 +.00000402 +00000-0 +22441-3 0  9996
2 14407 082.7685 054.4036 0039492 131.3789 229.0792 14.08261097815637
1 14408U 81053JD  18212.74823799 +.00000306 +00000-0 +32286-3 0  9990
2 14408 082.9634 120.4021 0121157 072.2492 318.1130 13.68241140309508
1 14409U 81053JE  18213.11559993  .00000299  00000-0  32458-3 0  9997
2 14409  83.0282 256.8883 0127551 175.8693 218.8241 13.66314679904143
1 14410U 68091CL  18211.91060830 +.00000661 +00000-0 +42407-3 0  9997
2 14410 062.2252 173.1185 0453284 256.2767 132.5010 13.69880456706531
1 14412U 68091CN  18212.89494740 +.00000550 +00000-0 +72648-3 0  9995
2 14412 062.2879 153.2219 0795790 094.7368 274.4862 12.79086966718682
1 14417U 68091CT  18212.94580974 +.00003372 +00000-0 +27714-3 0  9990
2 14417 062.2464 190.9938 0238796 022.2821 338.8429 14.81655155789860
1 14420U 68097EB  18212.89311850 +.00000430 +00000-0 +65343-4 0  9992
2 14420 062.2489 137.4992 0237441 212.4828 146.1453 14.72245519809266
1 14430U 68091CV  18212.30693536 -.00000686  00000-0 -77875-3 0  9994
2 14430  62.2524 172.3507 0680545 260.0511 256.5004 12.92258147728878
1 14440U 81053JG  18212.49700241 +.00000147 +00000-0 +16705-3 0  9995
2 14440 082.9236 129.3801 0116001 349.1276 061.5647 13.61287308821807
1 14441U 81053JH  18212.70775535  .00000341  00000-0  21283-3 0  9991
2 14441  83.1204 300.1908 0048373 151.3005   0.8584 14.01465926869270
1 14442U 77121BE  18212.91871959 +.00000423 +00000-0 +53051-3 0  9992
2 14442 065.3700 180.8571 0007067 271.8651 119.6189 13.74981667005190
1 14443U 77121BF  18212.99124737  .00000241  00000-0  93170-4 0  9991
2 14443  65.5860 152.7446 0133400 180.7275 307.5960 14.43570195919242
1 14444U 77121BG  18212.84935226 -.00000073  00000-0  80923-5 0  9996
2 14444  65.7985 112.7360 0066102 274.6690 211.6810 13.72118097841469
1 14445U 77121BH  18212.18875008 +.00000736 +00000-0 +37651-3 0  9998
2 14445 066.4793 254.5939 0112549 251.0954 107.7907 14.17931374780826
1 14446U 71015CQ  18212.83578977 -.00000003 +00000-0 +98406-4 0  9996
2 14446 065.5716 147.9058 0070536 291.2959 101.1784 13.61990156252252
1 14454U 83109C   18212.97045086 +.00000023 +00000-0 +45473-5 0  9995
2 14454 081.1624 027.6873 0094445 283.3600 241.3587 14.25681311806920
1 14458U 78026FY  18211.48940398  .00000083  00000-0  75619-4 0  9996
2 14458  98.6060 200.9326 0069123 265.6019 254.0191 14.05122583806631
1 14460U 78026GA  18211.98563814  .00000044  00000-0  94581-4 0  9994
2 14460  98.7523  28.9526 0257122 312.5477 200.8316 13.57067231747903
1 14461U 78026GB  18212.67364765  .00000202  00000-0  11231-3 0  9992
2 14461  99.1673 143.0371 0097969  37.6794  81.1845 14.19720636911803
1 14463U 78026GD  18212.75129872 +.00000211 +00000-0 +13245-3 0  9998
2 14463 099.1411 042.9079 0129196 226.8018 264.2021 14.11226301891681
1 14464U 78026GE  18211.79842715 +.00000036 +00000-0 +61346-4 0  9991
2 14464 099.2986 337.7227 0061377 015.2555 150.5738 13.93332103819793
1 14465U 78026GF  18212.04408522 +.00000181 +00000-0 +12889-3 0  9993
2 14465 098.7276 068.4866 0122666 099.0055 061.7518 14.05038951813624
1 14466U 70025NS  18213.10848515  .00000714  00000-0  28312-3 0  9993
2 14466  99.9879 257.6019 0069228 196.7105 163.1792 14.31364852898955
1 14467U 70025NT  18212.75108588  .00000038  00000-0  10999-3 0  9994
2 14467  99.9793 315.3988 0001808  54.1221 112.8936 13.62520742769766
1 14469U 70025NV  18212.98981449 -.00000195  00000-0 -36558-3 0  9991
2 14469 101.6793 224.3774 0268392 185.9173 203.5871 13.06373457770465
1 14470U 73086GP  18213.09141530  .00000019  00000-0  28866-3 0  9991
2 14470 101.7708 295.6835 0116715 280.1261 198.3790 12.81283706663034
1 14471U 76077EN  18212.93334465 +.00000018 +00000-0 +54531-3 0  9995
2 14471 102.0992 199.9832 0128854 333.1917 040.7439 12.24809463586878
1 14472U 76077EP  18212.89349926 -.00000002 +00000-0 +40547-3 0  9995
2 14472 102.4001 183.6444 0155334 162.5686 224.2252 12.16245642583461
1 14473U 73086GQ  18212.56306552  .00000580  00000-0  45515-2 0  9994
2 14473 102.3763 234.2704 0220250 224.2840 293.0474 12.35949140578634
1 14474U 74089EQ  18209.46834066 -.00000216 +00000-0 -18149-2 0  9991
2 14474 100.6643 197.4325 0297498 357.3599 154.1589 12.06800568572781
1 14475U 74089ER  18212.27750925  .00000454  00000-0  28212-2 0  9990
2 14475 101.1015 127.5401 0122146 196.8939 316.1198 12.58741894621235
1 14478U 70025NW  18212.47648739  .00001417  00000-0  58124-2 0  9995
2 14478 100.8733 225.8385 0562867  86.8620 279.6668 12.44886965555681
1 14480U 73086GR  18212.87715781 +.00000624 +00000-0 +13314-2 0  9995
2 14480 102.6936 284.1897 0081283 038.0426 011.9131 13.35360780668776
1 14493U 77065FJ  18213.36988795  .00000153  00000-0  10033-4 0  9996
2 14493  28.9514 296.5485 0622817  23.8716 338.9485 13.79051508833568
1 14496U 77065FM  18212.01199362  .00000590  00000-0  16417-3 0  9990
2 14496  29.1600  78.2047 0317678 267.9454 236.7103 14.11339487828800
1 14501U 76126BN  18212.88460970 +.00000407 +00000-0 +85001-4 0  9998
2 14501 065.7056 206.9143 0419016 187.8501 171.5897 14.28235765748042
1 14502U 76126BP  18213.12430767  .00000026  00000-0  40499-4 0  9997
2 14502  65.7831  94.2394 0790140 277.3750 155.9859 13.33858254773558
1 14503U 76126BQ  18213.43266588  .00000146  00000-0  29479-3 0  9997
2 14503  65.8545 219.7461 1015668 287.8408  61.4444 12.30066851219391
1 14504U 81053JJ  18212.76979353  .00000838  00000-0  54817-3 0  9991
2 14504  83.1956 329.8155 0033062 238.2581 274.8259 14.00828117879164
1 14509U 76077EQ  18212.63202976 -.00000027 +00000-0 +17298-3 0  9995
2 14509 102.3671 260.9340 0158149 221.0455 295.4543 12.12116971583966
1 14510U 76077ER  18213.12077395  .00000081  00000-0  14165-2 0  9995
2 14510 102.3930 279.6059 0222389  54.3080 336.4884 11.99363855583164
1 14511U 77121BJ  18212.51492752 -.00000033 +00000-0 +10070-3 0  9997
2 14511 064.6809 047.2653 0133719 105.5274 287.6082 13.21618178728246
1 14512U 77012K   18207.46386970 -.00000068 +00000-0 -85404-4 0  9992
2 14512 065.7441 016.5908 1720536 355.3380 003.3131 10.76716029789680
1 14515U 65027M   18211.49188784  .00000139  00000-0  45857-3 0  9993
2 14515  90.3059 297.3883 0033741  83.3742 277.1217 12.96333140657736
1 14556U 81053JL  18212.48308140  .00000301  00000-0  33254-3 0  9994
2 14556  83.0131 260.7062 0136435 329.2397  95.0995 13.65075509719295
1 14557U 81053JM  18212.52519191  .00000855  00000-0  46660-3 0  9999
2 14557  82.7993 139.5982 0045572 188.1851 225.8132 14.10539581872719
1 14558U 81053JN  18213.11111661  .00000678  00000-0  31863-3 0  9998
2 14558  82.9292 168.2032 0017195 286.3566 203.3243 14.18672360884362
1 14559U 78026GG  18212.86914726  .00000705  00000-0  13446-3 0  9997
2 14559  99.0376  66.4976 0053368 118.4555   3.8537 14.66779337920237
